ACS3                    
1 59588U 24077B   24250.15673198  .00023188  00000+0  27071-1 0  9997
2 59588  97.4094 299.5115 0030422 235.7412 124.0857 13.68204199 18477
